{"type": "FeatureCollection", "features": [ {"type": "Feature", "properties": {"norad_id": 37474, "name": "FENGYUN 1C DEB", "group": "fengyun-1c-debris", "lat": 62.48807280030322, "lon": 178.03859172812435, "alt_km": 590.3922680538826, "timestamp": "2025-12-16T10:53:45.759038+00:00", "meta": {"OBJECT_NAME": "FENGYUN 1C DEB", "OBJECT_ID": "1999-025EJU", "EPOCH": "2025-12-15T19:57:22.222080", "MEAN_MOTION": 14.75183022, "ECCENTRICITY": 0.01319402, "INCLINATION": 99.1656, "RA_OF_ASC_NODE": 195.3932, "ARG_OF_PERICENTER": 125.3567, "MEAN_ANOMALY": 236.0052, "EPHEMERIS_TYPE": 0, "CLASSIFICATION_TYPE": "U", "NORAD_CAT_ID": 37474, "ELEMENT_SET_NO": 999, "REV_AT_EPOCH": 62421, "BSTAR": 0.00062802012, "MEAN_MOTION_DOT": 4.818e-05, "MEAN_MOTION_DDOT": 0}, "tle": {"line1": "1 37474U 99025EJU 25349.83150720  .00004818  00000+0  62802-3 0  9990", "line2": "2 37474  99.1656 195.3932 0131940 125.3567 236.0052 14.75183022624218"}}, "geometry": {"type": "Point", "coordinates": [178.03859172812435, 62.48807280030322]}}, {"type": "Feature", "properties": {"norad_id": 37477, "name": "FENGYUN 1C DEB", "group": "fengyun-1c-debris", "lat": -80.23939161565923, "lon": 113.34770034318063, "alt_km": 859.7769948771647, "timestamp": "2025-12-16T10:53:45.759048+00:00", "meta": {"OBJECT_NAME": "FENGYUN 1C DEB", "OBJECT_ID": "1999-025EJX", "EPOCH": "2025-12-05T11:28:45.537312", "MEAN_MOTION": 14.19689266, "ECCENTRICITY": 0.0036971, "INCLINATION": 98.6048, "RA_OF_ASC_NODE": 344.3504, "ARG_OF_PERICENTER": 127.046, "MEAN_ANOMALY": 233.4107, "EPHEMERIS_TYPE": 0, "CLASSIFICATION_TYPE": "U", "NORAD_CAT_ID": 37477, "ELEMENT_SET_NO": 999, "REV_AT_EPOCH": 81811, "BSTAR": 0.001143971, "MEAN_MOTION_DOT": 2.393e-05, "MEAN_MOTION_DDOT": 0}, "tle": {"line1": "1 37477U 99025EJX 25339.47830483  .00002393  00000+0  11440-2 0  9990", "line2": "2 37477  98.6048 344.3504 0036971 127.0460 233.4107 14.19689266818115"}}, "geometry": {"type": "Point", "coordinates": [113.34770034318063, -80.23939161565923]}}, {"type": "Feature", "properties": {"norad_id": 37478, "name": "FENGYUN 1C DEB", "group": "fengyun-1c-debris", "lat": -75.7608496333401, "lon": 110.42987811902333, "alt_km": 982.0866656709968, "timestamp": "2025-12-16T10:53:45.759058+00:00", "meta": {"OBJECT_NAME": "FENGYUN 1C DEB", "OBJECT_ID": "1999-025EJY", "EPOCH": "2025-12-14T05:55:23.732544", "MEAN_MOTION": 13.02983973, "ECCENTRICITY": 0.05482188, "INCLINATION": 99.6498, "RA_OF_ASC_NODE": 330.5496, "ARG_OF_PERICENTER": 315.7365, "MEAN_ANOMALY": 40.1108, "EPHEMERIS_TYPE": 0, "CLASSIFICATION_TYPE": "U", "NORAD_CAT_ID": 37478, "ELEMENT_SET_NO": 999, "REV_AT_EPOCH": 56581, "BSTAR": 0.0055489953, "MEAN_MOTION_DOT": 3.525e-05, "MEAN_MOTION_DDOT": 0}, "tle": {"line1": "1 37478U 99025EJY 25348.24680246  .00003525  00000+0  55490-2 0  9997", "line2": "2 37478  99.6498 330.5496 0548218 315.7365  40.1108 13.02983973565818"}}, "geometry": {"type": "Point", "coordinates": [110.42987811902333, -75.7608496333401]}}, {"type": "Feature", "properties": {"norad_id": 37589, "name": "FENGYUN 1C DEB", "group": "fengyun-1c-debris", "lat": 22.792571663696407, "lon": 76.92591469043751, "alt_km": 874.6324142251433, "timestamp": "2025-12-16T10:53:45.759068+00:00", "meta": {"OBJECT_NAME": "FENGYUN 1C DEB", "OBJECT_ID": "1999-025EKH", "EPOCH": "2025-12-14T22:19:52.787712", "MEAN_MOTION": 14.08203479, "ECCENTRICITY": 0.01182522, "INCLINATION": 99.0734, "RA_OF_ASC_NODE": 251.544, "ARG_OF_PERICENTER": 258.1684, "MEAN_ANOMALY": 100.6202, "EPHEMERIS_TYPE": 0, "CLASSIFICATION_TYPE": "U", "NORAD_CAT_ID": 37589, "ELEMENT_SET_NO": 999, "REV_AT_EPOCH": 82615, "BSTAR": 0.0019842502, "MEAN_MOTION_DOT": 3.566e-05, "MEAN_MOTION_DDOT": 0}, "tle": {"line1": "1 37589U 99025EKH 25348.93047208  .00003566  00000+0  19843-2 0  9998", "line2": "2 37589  99.0734 251.5440 0118252 258.1684 100.6202 14.08203479826151"}}, "geometry": {"type": "Point", "coordinates": [76.92591469043751, 22.792571663696407]}}, {"type": "Feature", "properties": {"norad_id": 37594, "name": "FENGYUN 1C DEB", "group": "fengyun-1c-debris", "lat": 35.32167133547827, "lon": 13.433650897191526, "alt_km": 897.5632896581783, "timestamp": "2025-12-16T10:53:45.759079+00:00", "meta": {"OBJECT_NAME": "FENGYUN 1C DEB", "OBJECT_ID": "1999-025EKN", "EPOCH": "2025-12-12T01:13:06.397536", "MEAN_MOTION": 14.11116962, "ECCENTRICITY": 0.00850219, "INCLINATION": 98.7348, "RA_OF_ASC_NODE": 15.4051, "ARG_OF_PERICENTER": 271.7365, "MEAN_ANOMALY": 87.407, "EPHEMERIS_TYPE": 0, "CLASSIFICATION_TYPE": "U", "NORAD_CAT_ID": 37594, "ELEMENT_SET_NO": 999, "REV_AT_EPOCH": 77752, "BSTAR": 0.00036155709, "MEAN_MOTION_DOT": 6.3e-06, "MEAN_MOTION_DDOT": 0}, "tle": {"line1": "1 37594U 99025EKN 25346.05076849  .00000630  00000+0  36156-3 0  9994", "line2": "2 37594  98.7348  15.4051 0085021 271.7365  87.4070 14.11116962777528"}}, "geometry": {"type": "Point", "coordinates": [13.433650897191526, 35.32167133547827]}}, {"type": "Feature", "properties": {"norad_id": 37600, "name": "FENGYUN 1C DEB", "group": "fengyun-1c-debris", "lat": -16.98089420807248, "lon": -35.77885874151387, "alt_km": 1199.7627175319822, "timestamp": "2025-12-16T10:53:45.759089+00:00", "meta": {"OBJECT_NAME": "FENGYUN 1C DEB", "OBJECT_ID": "1999-025EKU", "EPOCH": "2025-12-12T05:13:55.637184", "MEAN_MOTION": 13.82539982, "ECCENTRICITY": 0.03568946, "INCLINATION": 98.9366, "RA_OF_ASC_NODE": 142.947, "ARG_OF_PERICENTER": 50.9925, "MEAN_ANOMALY": 312.2443, "EPHEMERIS_TYPE": 0, "CLASSIFICATION_TYPE": "U", "NORAD_CAT_ID": 37600, "ELEMENT_SET_NO": 999, "REV_AT_EPOCH": 88480, "BSTAR": 0.0043245273, "MEAN_MOTION_DOT": 7.61e-05, "MEAN_MOTION_DDOT": 0}, "tle": {"line1": "1 37600U 99025EKU 25346.21800506  .00007610  00000+0  43245-2 0  9996", "line2": "2 37600  98.9366 142.9470 0356894  50.9925 312.2443 13.82539982884808"}}, "geometry": {"type": "Point", "coordinates": [-35.77885874151387, -16.98089420807248]}}, {"type": "Feature", "properties": {"norad_id": 37683, "name": "FENGYUN 1C DEB", "group": "fengyun-1c-debris", "lat": -36.200187803211456, "lon": 83.54987696199461, "alt_km": 1204.1427535134535, "timestamp": "2025-12-16T10:53:45.759099+00:00", "meta": {"OBJECT_NAME": "FENGYUN 1C DEB", "OBJECT_ID": "1999-025EKY", "EPOCH": "2025-12-15T01:30:50.970816", "MEAN_MOTION": 13.31915739, "ECCENTRICITY": 0.05851523, "INCLINATION": 98.0021, "RA_OF_ASC_NODE": 268.3677, "ARG_OF_PERICENTER": 119.1216, "MEAN_ANOMALY": 265.0145, "EPHEMERIS_TYPE": 0, "CLASSIFICATION_TYPE": "U", "NORAD_CAT_ID": 37683, "ELEMENT_SET_NO": 999, "REV_AT_EPOCH": 29271, "BSTAR": 0.0013129823, "MEAN_MOTION_DOT": 1.632e-05, "MEAN_MOTION_DDOT": 0}, "tle": {"line1": "1 37683U 99025EKY 25349.06308994  .00001632  00000+0  13130-2 0  9995", "line2": "2 37683  98.0021 268.3677 0585152 119.1216 265.0145 13.31915739292711"}}, "geometry": {"type": "Point", "coordinates": [83.54987696199461, -36.200187803211456]}}, {"type": "Feature", "properties": {"norad_id": 37686, "name": "FENGYUN 1C DEB", "group": "fengyun-1c-debris", "lat": -80.90500148041521, "lon": 91.38044073587687, "alt_km": 1282.4909812788728, "timestamp": "2025-12-16T10:53:45.759109+00:00", "meta": {"OBJECT_NAME": "FENGYUN 1C DEB", "OBJECT_ID": "1999-025ELB", "EPOCH": "2025-12-15T20:02:19.291200", "MEAN_MOTION": 13.35366399, "ECCENTRICITY": 0.03959537, "INCLINATION": 99.0216, "RA_OF_ASC_NODE": 7.9106, "ARG_OF_PERICENTER": 34.5937, "MEAN_ANOMALY": 145.9696, "EPHEMERIS_TYPE": 0, "CLASSIFICATION_TYPE": "U", "NORAD_CAT_ID": 37686, "ELEMENT_SET_NO": 999, "REV_AT_EPOCH": 60668, "BSTAR": 0.00056833835, "MEAN_MOTION_DOT": 4.14e-06, "MEAN_MOTION_DDOT": 0}, "tle": {"line1": "1 37686U 99025ELB 25349.83494550  .00000414  00000+0  56834-3 0  9993", "line2": "2 37686  99.0216   7.9106 0395953  34.5937 145.9696 13.35366399606681"}}, "geometry": {"type": "Point", "coordinates": [91.38044073587687, -80.90500148041521]}}, {"type": "Feature", "properties": {"norad_id": 37687, "name": "FENGYUN 1C DEB", "group": "fengyun-1c-debris", "lat": -81.70437048567327, "lon": 123.34390690806657, "alt_km": 900.8347564158676, "timestamp": "2025-12-16T10:53:45.759120+00:00", "meta": {"OBJECT_NAME": "FENGYUN 1C DEB", "OBJECT_ID": "1999-025ELC", "EPOCH": "2025-12-14T21:46:20.279424", "MEAN_MOTION": 13.85346082, "ECCENTRICITY": 0.03333739, "INCLINATION": 98.2067, "RA_OF_ASC_NODE": 23.7727, "ARG_OF_PERICENTER": 352.7982, "MEAN_ANOMALY": 129.6123, "EPHEMERIS_TYPE": 0, "CLASSIFICATION_TYPE": "U", "NORAD_CAT_ID": 37687, "ELEMENT_SET_NO": 999, "REV_AT_EPOCH": 83284, "BSTAR": 0.0025058041, "MEAN_MOTION_DOT": 4.365e-05, "MEAN_MOTION_DDOT": 0}, "tle": {"line1": "1 37687U 99025ELC 25348.90717916  .00004365  00000+0  25058-2 0  9997", "line2": "2 37687  98.2067  23.7727 0333373 352.7982 129.6123 13.85346082832840"}}, "geometry": {"type": "Point", "coordinates": [123.34390690806657, -81.70437048567327]}}, {"type": "Feature", "properties": {"norad_id": 37689, "name": "FENGYUN 1C DEB", "group": "fengyun-1c-debris", "lat": 64.52644297861565, "lon": 12.334873201135684, "alt_km": 737.6398914320671, "timestamp": "2025-12-16T10:53:45.759130+00:00", "meta": {"OBJECT_NAME": "FENGYUN 1C DEB", "OBJECT_ID": "1999-025ELE", "EPOCH": "2025-12-15T08:04:09.708672", "MEAN_MOTION": 14.48695183, "ECCENTRICITY": 0.00208141, "INCLINATION": 98.9198, "RA_OF_ASC_NODE": 30.4029, "ARG_OF_PERICENTER": 231.8033, "MEAN_ANOMALY": 128.1284, "EPHEMERIS_TYPE": 0, "CLASSIFICATION_TYPE": "U", "NORAD_CAT_ID": 37689, "ELEMENT_SET_NO": 999, "REV_AT_EPOCH": 57850, "BSTAR": 0.0016106494, "MEAN_MOTION_DOT": 6.04e-05, "MEAN_MOTION_DDOT": 0}, "tle": {"line1": "1 37689U 99025ELE 25349.33622348  .00006040  00000+0  16106-2 0  9997", "line2": "2 37689  98.9198  30.4029 0020814 231.8033 128.1284 14.48695183578502"}}, "geometry": {"type": "Point", "coordinates": [12.334873201135684, 64.52644297861565]}}]}